{
  "type": "FeatureCollection",
  "features": [
    {
      "type": "Feature",
      "properties": {
        "norad_id": 24876,
        "name": "GPS BIIR-2  (PRN 13)",
        "group": "gnss",
        "lat": 44.11104553947936,
        "lon": 147.01409041628452,
        "alt_km": 19920.281118733306,
        "timestamp": "2025-12-09T07:41:33.447773+00:00",
        "meta_object_name": "GPS BIIR-2  (PRN 13)",
        "meta_object_id": "1997-035A",
        "meta_epoch": "2025-12-08T17:51:24.025248",
        "meta_mean_motion": 2.00563531,
        "meta_eccentricity": 0.00967341,
        "meta_inclination": 55.8934,
        "meta_ra_of_asc_node": 106.0252,
        "meta_arg_of_pericenter": 57.0084,
        "meta_mean_anomaly": 303.8909,
        "meta_ephemeris_type": 0,
        "meta_classification_type": "U",
        "meta_norad_cat_id": 24876,
        "meta_element_set_no": 999,
        "meta_rev_at_epoch": 20813,
        "meta_bstar": 0,
        "meta_mean_motion_dot": 1.8e-07,
        "meta_mean_motion_ddot": 0,
        "tle_line1": "1 24876U 97035A   25342.74402807  .00000018  00000+0  00000+0 0  9996",
        "tle_line2": "2 24876  55.8934 106.0252 0096734  57.0084 303.8909  2.00563531208133"
      },
      "geometry": {
        "type": "Point",
        "coordinates": [
          147.01409041628452,
          44.11104553947936
        ]
      }
    },
    {
      "type": "Feature",
      "properties": {
        "norad_id": 26360,
        "name": "GPS BIIR-4  (PRN 20)",
        "group": "gnss",
        "lat": 25.274618440177615,
        "lon": -172.28285164490882,
        "alt_km": 20183.772147781907,
        "timestamp": "2025-12-09T07:41:33.447823+00:00",
        "meta_object_name": "GPS BIIR-4  (PRN 20)",
        "meta_object_id": "2000-025A",
        "meta_epoch": "2025-12-08T05:53:38.603616",
        "meta_mean_motion": 2.00567966,
        "meta_eccentricity": 0.00388423,
        "meta_inclination": 55.0425,
        "meta_ra_of_asc_node": 27.0197,
        "meta_arg_of_pericenter": 241.5588,
        "meta_mean_anomaly": 211.3182,
        "meta_ephemeris_type": 0,
        "meta_classification_type": "U",
        "meta_norad_cat_id": 26360,
        "meta_element_set_no": 999,
        "meta_rev_at_epoch": 18744,
        "meta_bstar": 0,
        "meta_mean_motion_dot": -8.7e-07,
        "meta_mean_motion_ddot": 0,
        "tle_line1": "1 26360U 00025A   25342.24558569 -.00000087  00000+0  00000+0 0  9998",
        "tle_line2": "2 26360  55.0425  27.0197 0038842 241.5588 211.3182  2.00567966187447"
      },
      "geometry": {
        "type": "Point",
        "coordinates": [
          -172.28285164490882,
          25.274618440177615
        ]
      }
    },
    {
      "type": "Feature",
      "properties": {
        "norad_id": 26407,
        "name": "GPS BIIR-5  (PRN 22)",
        "group": "gnss",
        "lat": -8.468955636099828,
        "lon": -143.29432899378256,
        "alt_km": 19956.30459386465,
        "timestamp": "2025-12-09T07:41:33.447841+00:00",
        "meta_object_name": "GPS BIIR-5  (PRN 22)",
        "meta_object_id": "2000-040A",
        "meta_epoch": "2025-12-08T20:20:05.545824",
        "meta_mean_motion": 2.00567841,
        "meta_eccentricity": 0.01262241,
        "meta_inclination": 54.8917,
        "meta_ra_of_asc_node": 222.7238,
        "meta_arg_of_pericenter": 301.7361,
        "meta_mean_anomaly": 65.1974,
        "meta_ephemeris_type": 0,
        "meta_classification_type": "U",
        "meta_norad_cat_id": 26407,
        "meta_element_set_no": 999,
        "meta_rev_at_epoch": 18613,
        "meta_bstar": 0,
        "meta_mean_motion_dot": 1e-07,
        "meta_mean_motion_ddot": 0,
        "tle_line1": "1 26407U 00040A   25342.84728641  .00000010  00000+0  00000+0 0  9998",
        "tle_line2": "2 26407  54.8917 222.7238 0126224 301.7361  65.1974  2.00567841186133"
      },
      "geometry": {
        "type": "Point",
        "coordinates": [
          -143.29432899378256,
          -8.468955636099828
        ]
      }
    },
    {
      "type": "Feature",
      "properties": {
        "norad_id": 27663,
        "name": "GPS BIIR-8  (PRN 16)",
        "group": "gnss",
        "lat": 41.41313240267957,
        "lon": 4.257624497852443,
        "alt_km": 20065.41720068087,
        "timestamp": "2025-12-09T07:41:33.447856+00:00",
        "meta_object_name": "GPS BIIR-8  (PRN 16)",
        "meta_object_id": "2003-005A",
        "meta_epoch": "2025-12-08T15:56:33.296928",
        "meta_mean_motion": 2.00571063,
        "meta_eccentricity": 0.0147293,
        "meta_inclination": 54.9243,
        "meta_ra_of_asc_node": 222.5404,
        "meta_arg_of_pericenter": 51.7448,
        "meta_mean_anomaly": 318.8801,
        "meta_ephemeris_type": 0,
        "meta_classification_type": "U",
        "meta_norad_cat_id": 27663,
        "meta_element_set_no": 999,
        "meta_rev_at_epoch": 16749,
        "meta_bstar": 0,
        "meta_mean_motion_dot": 1.2e-07,
        "meta_mean_motion_ddot": 0,
        "tle_line1": "1 27663U 03005A   25342.66427427  .00000012  00000+0  00000+0 0  9997",
        "tle_line2": "2 27663  54.9243 222.5404 0147293  51.7448 318.8801  2.00571063167497"
      },
      "geometry": {
        "type": "Point",
        "coordinates": [
          4.257624497852443,
          41.41313240267957
        ]
      }
    },
    {
      "type": "Feature",
      "properties": {
        "norad_id": 28190,
        "name": "GPS BIIR-11 (PRN 19)",
        "group": "gnss",
        "lat": -52.484382929206866,
        "lon": -142.42175827243014,
        "alt_km": 20316.14810229622,
        "timestamp": "2025-12-09T07:41:33.447870+00:00",
        "meta_object_name": "GPS BIIR-11 (PRN 19)",
        "meta_object_id": "2004-009A",
        "meta_epoch": "2025-12-08T00:54:44.996256",
        "meta_mean_motion": 2.00560848,
        "meta_eccentricity": 0.01082887,
        "meta_inclination": 54.99,
        "meta_ra_of_asc_node": 283.4084,
        "meta_arg_of_pericenter": 167.5613,
        "meta_mean_anomaly": 269.7716,
        "meta_ephemeris_type": 0,
        "meta_classification_type": "U",
        "meta_norad_cat_id": 28190,
        "meta_element_set_no": 999,
        "meta_rev_at_epoch": 15911,
        "meta_bstar": 0,
        "meta_mean_motion_dot": -4.5e-07,
        "meta_mean_motion_ddot": 0,
        "tle_line1": "1 28190U 04009A   25342.03802079 -.00000045  00000+0  00000+0 0  9996",
        "tle_line2": "2 28190  54.9900 283.4084 0108288 167.5613 269.7716  2.00560848159112"
      },
      "geometry": {
        "type": "Point",
        "coordinates": [
          -142.42175827243014,
          -52.484382929206866
        ]
      }
    },
    {
      "type": "Feature",
      "properties": {
        "norad_id": 28474,
        "name": "GPS BIIR-13 (PRN 02)",
        "group": "gnss",
        "lat": -12.693091510458025,
        "lon": -36.46253004722353,
        "alt_km": 19811.61295112678,
        "timestamp": "2025-12-09T07:41:33.447883+00:00",
        "meta_object_name": "GPS BIIR-13 (PRN 02)",
        "meta_object_id": "2004-045A",
        "meta_epoch": "2025-12-08T20:14:45.178080",
        "meta_mean_motion": 2.0056922,
        "meta_eccentricity": 0.01706882,
        "meta_inclination": 55.2426,
        "meta_ra_of_asc_node": 332.5625,
        "meta_arg_of_pericenter": 309.0781,
        "meta_mean_anomaly": 49.896,
        "meta_ephemeris_type": 0,
        "meta_classification_type": "U",
        "meta_norad_cat_id": 28474,
        "meta_element_set_no": 999,
        "meta_rev_at_epoch": 15461,
        "meta_bstar": 0,
        "meta_mean_motion_dot": -8.3e-07,
        "meta_mean_motion_ddot": 0,
        "tle_line1": "1 28474U 04045A   25342.84357845 -.00000083  00000+0  00000+0 0  9998",
        "tle_line2": "2 28474  55.2426 332.5625 0170688 309.0781  49.8960  2.00569220154614"
      },
      "geometry": {
        "type": "Point",
        "coordinates": [
          -36.46253004722353,
          -12.693091510458025
        ]
      }
    },
    {
      "type": "Feature",
      "properties": {
        "norad_id": 28874,
        "name": "GPS BIIRM-1 (PRN 17)",
        "group": "gnss",
        "lat": -43.8184404720177,
        "lon": -121.29058941863387,
        "alt_km": 19839.93949457675,
        "timestamp": "2025-12-09T07:41:33.447897+00:00",
        "meta_object_name": "GPS BIIRM-1 (PRN 17)",
        "meta_object_id": "2005-038A",
        "meta_epoch": "2025-12-08T21:36:40.475808",
        "meta_mean_motion": 2.00578555,
        "meta_eccentricity": 0.01317556,
        "meta_inclination": 55.0354,
        "meta_ra_of_asc_node": 280.8555,
        "meta_arg_of_pericenter": 293.4009,
        "meta_mean_anomaly": 65.4025,
        "meta_ephemeris_type": 0,
        "meta_classification_type": "U",
        "meta_norad_cat_id": 28874,
        "meta_element_set_no": 999,
        "meta_rev_at_epoch": 14802,
        "meta_bstar": 0,
        "meta_mean_motion_dot": -4.9e-07,
        "meta_mean_motion_ddot": 0,
        "tle_line1": "1 28874U 05038A   25342.90046847 -.00000049  00000+0  00000+0 0  9991",
        "tle_line2": "2 28874  55.0354 280.8555 0131755 293.4009  65.4025  2.00578555148029"
      },
      "geometry": {
        "type": "Point",
        "coordinates": [
          -121.29058941863387,
          -43.8184404720177
        ]
      }
    }
  ]
}